94P/Russell,e,6.1876,70.8560,92.4186,3.509559,0.1499081,0.36542889,348.4448,03/05.0/2023,2000,g  9.0,6.0
# From MPC 75717
95P/Chiron,e,6.9180,209.3057,339.4355,13.71304,0.0194090,0.37622142,193.0622,03/05.0/2023,2000,g  6.5,2.0
# From MPEC 2023-D72
96P/Machholz,e,57.5028,93.9536,14.7490,3.030880,0.1867888,0.96158618,6.1482,03/05.0/2023,2000,g 13.0,4.8
# From MPEC 2022-C56
97P/Metcalf-Brewington,e,17.9520,184.0769,230.0181,4.762507,0.0948311,0.46021657,36.2521,03/05.0/2023,2000,g  5.5,6.0
# From MPEC 2021-W31
98P/Takamizawa,e,10.5619,114.6747,157.7910,3.793032,0.1334210,0.56220109,105.3363,03/05.0/2023,2000,g  9.0,8.0
# From MPEC 2023-D72
99P/Kowal,e,4.3399,28.1014,174.8278,6.101339,0.0653983,0.22874976,21.4089,03/05.0/2023,2000,g  4.5,6.0
# From MPEC 2022-QD9
100P/Hartley,e,25.5669,37.6880,181.9598,3.431030,0.1550841,0.41195736,31.9600,03/05.0/2023,2000,g  9.0,8.0
# From MPEC 2022-K19
101P/Chernykh,e,5.0506,116.1993,277.7840,5.809476,0.0703880,0.59639624,80.7208,03/05.0/2023,2000,g 10.0,4.8
# From MPEC 2022-C56
102P/Shoemaker,e,25.8802,339.3701,20.6532,3.816634,0.1321853,0.45706640,101.9633,03/05.0/2023,2000,g  6.5,8.0
# From MPEC 2018-HA5
103P/Hartley,e,13.6103,219.7514,181.3008,3.474822,0.1521616,0.69375868,326.2927,03/05.0/2023,2000,g  8.5,8.0
# From MPEC 2022-P82
104P/Kowal,e,5.7028,207.2073,227.2509,3.208437,0.1714999,0.66565186,71.5707,03/05.0/2023,2000,g 16.0,4.0
# From MPC109147
105P/Singer Brewster,e,9.1684,192.3952,46.4245,3.469711,0.1524980,0.40883006,254.7711,03/05.0/2023,2000,g 11.5,6.0
# From MPEC 2022-GA9
106P/Schuster,e,19.5383,48.8673,353.7255,3.765546,0.1348845,0.59395696,75.9546,03/05.0/2023,2000,g 14.0,4.8
# From MPEC 2015-M77
107P/Wilson-Harrington,e,2.7992,266.7726,95.4462,2.624481,0.2318136,0.63165619,44.5878,03/05.0/2023,2000,g  9.0,4.0
# From MPEC 2022-P82
108P/Ciffreo,e,11.4371,50.2749,354.4810,3.740984,0.1362151,0.55609974,73.6619,03/05.0/2023,2000,g  8.0,12.0
# From  105, 420
109P/Swift-Tuttle,e,113.7287,139.2387,153.0659,26.19700,0.0073507,0.96259185,81.1348,03/05.0/2023,2000,g  4.0,6.0
# From MPEC 2022-P82
110P/Hartley,e,11.7047,287.5167,167.4652,3.603867,0.1440625,0.31870673,72.4064,03/05.0/2023,2000,g  1.0,12.0
# From MPC 75718
111P/Helin-Roman-Crockett,e,4.2258,89.7498,1.1016,4.150942,0.1165425,0.10685460,73.0206,03/05.0/2023,2000,g  5.0,8.0
# From MPEC 2021-S45
112P/Urata-Niijima,e,24.2129,31.8343,21.4718,3.524417,0.1489612,0.59057528,166.8765,03/05.0/2023,2000,g 14.0,6.0
# From MPEC 2023-D72
113P/Spitaler,e,5.2894,306.6784,115.5453,3.692078,0.1389305,0.41985861,38.4115,03/05.0/2023,2000,g 13.5,4.0
# From MPEC 2023-A50
114P/Wiseman-Skiff,e,18.2896,271.0249,172.7453,3.542857,0.1477997,0.55546177,169.3026,03/05.0/2023,2000,g 11.5,6.0
# From MPEC 2021-UA9
115P/Maury,e,11.6772,176.0073,121.0031,4.272164,0.1116175,0.51794767,105.9123,03/05.0/2023,2000,g 10.5,6.0
# From MPEC 2023-B57
116P/Wild,e,3.6034,20.9791,173.2624,3.489317,0.1512145,0.37040422,34.9562,03/05.0/2023,2000,g  2.5,10.0
# From MPEC 2022-X67
117P/Helin-Roman-Alu,e,8.7038,58.8360,223.0240,4.083883,0.1194247,0.25563111,28.6440,03/05.0/2023,2000,g  2.5,8.0
# From MPEC 2023-D72
118P/Shoemaker-Levy,e,10.0917,142.0970,314.8436,3.346755,0.1609786,0.45349603,16.2023,03/05.0/2023,2000,g 12.0,4.0
# From MPEC 2023-D72
119P/Parker-Hartley,e,7.3932,104.5709,322.0868,3.804901,0.1327972,0.38824444,27.2138,03/05.0/2023,2000,g  3.5,8.0
# From MPEC 2022-CN4
120P/Mueller,e,8.4893,358.6734,36.6796,3.965842,0.1247961,0.37487950,83.1664,03/05.0/2023,2000,g 12.0,4.0
# From MPEC 2023-D41
121P/Shoemaker-Holt,e,20.1650,94.1151,11.6291,4.583880,0.1004279,0.18620510,348.3961,03/05.0/2023,2000,g  6.5,8.0
# From MPC 75718
122P/de Vico,e,85.6244,79.6714,12.9901,17.62436,0.0133209,0.96234297,133.7104,03/05.0/2023,2000,g  7.5,5.2
# From MPEC 2021-F20
123P/West-Hartley,e,15.2866,45.9041,104.0906,3.880324,0.1289443,0.44436010,192.5874,03/05.0/2023,2000,g 12.2,4.0
# From MPEC 2022-YN2
124P/Mrkos,e,31.6057,0.1208,185.2674,3.366258,0.1595816,0.48952518,167.6590,03/05.0/2023,2000,g 13.5,2.8
# From MPEC 2022-YB4
125P/Spacewatch,e,9.9860,153.1512,87.1725,3.128169,0.1781430,0.51207911,294.3831,03/05.0/2023,2000,g 13.0,6.0
# From MPC 66205
126P/IRAS,e,45.8763,357.8714,356.5984,5.633978,0.0737024,0.69639213,350.9849,03/05.0/2023,2000,g  9.0,4.0
# From MPEC 2023-D41
127P/Holt-Olmstead,e,14.3011,13.6044,6.2685,3.452342,0.1536503,0.35951761,31.7431,03/05.0/2023,2000,g 11.0,6.0
# From MPC 89014
128P/Shoemaker-Holt,e,4.3703,214.3278,210.2806,4.487973,0.1036642,0.32194594,232.5550,03/05.0/2023,2000,g  8.5,4.0
# From MPEC 2023-D72
129P/Shoemaker-Levy,e,3.4424,184.8610,307.4362,4.288934,0.1109635,0.08500110,10.5441,03/05.0/2023,2000,g 11.0,4.0
# From MPEC 2023-CD7
130P/McNaught-Hughes,e,6.0630,70.1818,246.1051,3.382859,0.1584084,0.46111722,295.5588,03/05.0/2023,2000,g 10.0,6.0
# From MPC102101
131P/Mueller,e,7.3615,214.1478,179.0765,3.678509,0.1397000,0.34474975,209.3928,03/05.0/2023,2000,g 11.0,4.0
# From MPEC 2022-TD3
132P/Helin-Roman-Alu,e,5.3827,173.9951,216.4000,3.888292,0.1285481,0.56472863,61.2917,03/05.0/2023,2000,g 11.0,6.0
# From MPC 94676
133P/Elst-Pizarro,e,1.3898,160.1004,131.9008,3.165492,0.1750017,0.15636661,284.3639,03/05.0/2023,2000,g 15.4,2.0
# From MPC 89012
134P/Kowal-Vavrova,e,4.3342,202.0481,18.8299,6.264929,0.0628536,0.58499982,202.3492,03/05.0/2023,2000,g 11.5,4.0
# From MPEC 2022-OB6
135P/Shoemaker-Levy,e,6.0634,213.0262,22.3282,3.799724,0.1330687,0.29461175,44.1320,03/05.0/2023,2000,g  7.0,8.0
# From MPEC 2020-W26
136P/Mueller,e,9.4247,137.4311,225.1136,4.188833,0.1149647,0.29338551,283.0222,03/05.0/2023,2000,g 11.0,4.0
# From MPEC 2022-K19
137P/Shoemaker-Levy,e,4.8582,232.9468,141.1627,4.521527,0.1025124,0.57384620,157.9796,03/05.0/2023,2000,g 11.0,4.0
# From MPEC 2016-U66
138P/Shoemaker-Levy,e,10.0909,309.2784,95.5993,3.620147,0.1430918,0.53139776,200.4434,03/05.0/2023,2000,g 15.0,6.0
# From MPEC 2020-HN5
139P/Vaisala-Oterma,e,2.3370,242.1386,165.7768,4.518330,0.1026212,0.24796581,195.8523,03/05.0/2023,2000,g  9.5,4.0
# From MPEC 2015-E14
140P/Bowell-Skiff,e,3.8447,343.2273,172.6807,6.412871,0.0606911,0.69422414,168.1806,03/05.0/2023,2000,g 11.5,6.0
# From MPEC 2021-AJ0
141P/Machholz,e,13.9563,241.7905,153.6041,3.057682,0.1843383,0.73606360,149.0199,03/05.0/2023,2000,g 14.7,4.0
# From MPEC 2022-SU8
141P-I/Machholz,e,13.9555,241.7960,153.5796,3.048264,0.1851933,0.73526601,149.7944,03/05.0/2023,2000,g 17.5,4.0
# From MPEC 2021-Y10
142P/Ge-Wang,e,12.2514,175.9329,174.0269,5.000504,0.0881421,0.49706305,58.2862,03/05.0/2023,2000,g  8.5,6.0
# From MPEC 2022-WQ9
143P/Kowal-Mrkos,e,4.7298,244.8741,320.3694,4.270155,0.1116963,0.41414854,197.1532,03/05.0/2023,2000,g 13.5,2.0
# From MPC104795
144P/Kushida,e,3.9302,242.9605,216.3504,3.830080,0.1314899,0.63506680,317.0504,03/05.0/2023,2000,g  8.5,8.0
# From MPC108598
145P/Shoemaker-Levy,e,11.2802,26.7970,10.2761,4.135402,0.1172000,0.54242689,235.3377,03/05.0/2023,2000,g 13.5,4.0
# From MPC100284
146P/Shoemaker-LINEAR,e,23.1202,53.3757,317.0318,4.028918,0.1218769,0.64749862,296.6911,03/05.0/2023,2000,g 15.0,4.0
# From MPC 75720
147P/Kushida-Muramatsu,e,2.3096,91.7135,348.3764,4.025012,0.1220543,0.21527132,326.2852,03/05.0/2023,2000,g 14.0,4.0
# From MPEC 2021-S45
148P/Anderson-LINEAR,e,3.6580,89.2025,8.0441,3.619056,0.1431565,0.54998209,37.8351,03/05.0/2023,2000,g 16.0,2.0
# From MPC 75720
149P/Mueller,e,34.2765,143.9428,30.9515,4.133532,0.1172795,0.32227512,195.9987,03/05.0/2023,2000,g  8.0,8.0
# From MPEC 2022-YN2
150P/LONEOS,e,18.5357,272.0853,246.0029,3.873435,0.1292884,0.54900459,311.7308,03/05.0/2023,2000,g 13.5,4.0
# From MPEC 2022-K19
151P/Helin,e,4.7274,143.1462,216.1234,5.763121,0.0712389,0.57375705,192.2791,03/05.0/2023,2000,g 10.0,6.0
# From MPEC 2022-UY9
152P/Helin-Lawrence,e,9.8790,91.8494,164.0604,4.477997,0.1040108,0.30861917,43.1473,03/05.0/2023,2000,g 11.5,4.0
# From MPC 46101
153P/Ikeya-Zhang,e,28.1776,93.4964,34.6581,50.36129,0.0027578,0.98978754,0.0000,03/02.9283/2002,2000,g  9.0,4.0
# From MPEC 2022-K19
154P/Brewington,e,17.6325,343.0264,47.9220,4.797318,0.0938008,0.67614708,316.4347,03/05.0/2023,2000,g  2.5,12.0
# From MPEC 2022-YN2
155P/Shoemaker,e,6.4023,97.1694,14.5400,6.572446,0.0584943,0.72675009,70.5318,03/05.0/2023,2000,g 10.0,4.8
# From MPEC 2022-GA9
156P/Russell-LINEAR,e,17.2701,35.3426,0.4770,3.462151,0.1529978,0.61515890,128.0266,03/05.0/2023,2000,g 15.5,2.0
# From MPEC 2023-D72
157P/Tritton,e,12.4201,287.5445,155.0696,3.545225,0.1476517,0.55663865,26.0131,03/05.0/2023,2000,g 10.0,4.0
# From MPEC 2022-VC5
157P-B/Tritton,e,12.4270,287.0871,153.9466,3.101223,0.1804698,0.49972681,32.1208,03/05.0/2023,2000,g 15.7,4.0
# From MPEC 2023-A50
158P/Kowal-LINEAR,e,7.4414,132.2982,195.1709,5.366773,0.0792746,0.09953839,35.8048,03/05.0/2023,2000,g  9.0,4.0
# From MPEC 2021-N06
159P/LONEOS,e,23.4838,54.9440,4.5829,5.852663,0.0696103,0.38258136,121.5747,03/05.0/2023,2000,g 10.0,4.0
# From MPEC 2022-K19
160P/LINEAR,e,15.6106,333.3605,12.7833,3.776918,0.1342758,0.52604713,159.5650,03/05.0/2023,2000,g 15.5,2.0
# From MPC 75721
161P/Hartley-IRAS,e,95.8007,1.5793,47.0363,7.716507,0.0459804,0.83550327,297.2749,03/05.0/2023,2000,g  8.5,6.0
# From MPEC 2023-A50
162P/SidingSpring,e,27.5650,30.8882,357.1894,3.092118,0.1812675,0.58316831,148.0739,03/05.0/2023,2000,g 12.0,4.0
# From MPEC 2021-S45
163P/NEAT,e,12.7164,102.0669,349.5562,3.764615,0.1349346,0.45264396,176.4230,03/05.0/2023,2000,g 14.5,4.0
# From MPEC 2021-F20
164P/Christensen,e,16.2703,88.2658,325.8761,3.654266,0.1410925,0.54098579,245.0901,03/05.0/2023,2000,g 11.0,4.0
# From MPC 75721
165P/LINEAR,e,15.8950,0.8603,125.7829,17.83719,0.0130832,0.61666628,108.9112,03/05.0/2023,2000,g 11.5,2.0
# From MPC 75722
166P/NEAT,e,15.3852,64.3461,321.6716,13.81626,0.0191919,0.38462694,145.4504,03/05.0/2023,2000,g  5.5,4.0
# From MPC 75722
167P/CINEOS,e,19.1022,295.7404,344.7971,16.25216,0.0150431,0.26970852,119.9850,03/05.0/2023,2000,g  9.5,2.0
# From MPC102101
